GPS BIIR-2  (PRN 13)    
1 24876U 97035A   19341.98909895  .00000101  00000-0  00000+0 0  9997
2 24876  55.4546 191.6720 0039072  66.5776 293.9189  2.00564455163958
GPS BIIR-3  (PRN 11)    
1 25933U 99055A   19342.60873080 -.00000079  00000-0  00000+0 0  9997
2 25933  52.2194  38.2884 0161201 113.5613 256.7666  2.00554368147789
GPS BIIR-4  (PRN 20)    
1 26360U 00025A   19342.49745417  .00000025  00000-0  00000+0 0  9990
2 26360  53.4235 117.1699 0049510 146.1070 197.2574  2.00569063143478
GPS BIIR-5  (PRN 28)    
1 26407U 00040A   19341.62495699 -.00000053  00000-0  00000+0 0  9999
2 26407  56.1392 309.7706 0192513 277.7789 122.6384  2.00559858142136
GPS BIIR-6  (PRN 14)    
1 26605U 00071A   19342.19446483  .00000105  00000-0  00000+0 0  9990
2 26605  55.0298 189.0424 0109347 249.8233 112.9296  2.00572519139748
GPS BIIR-8  (PRN 16)    
1 27663U 03005A   19342.51941332 -.00000052  00000-0  00000+0 0  9996
2 27663  56.1965 309.5155 0109432  32.2492  61.0879  2.00563255123518
GPS BIIR-9  (PRN 21)    
1 27704U 03010A   19342.57586814 -.00000071  00000-0  00000+0 0  9995
2 27704  54.4886  60.8599 0249068 280.2228 175.1964  2.00571720122313
GPS BIIR-10 (PRN 22)    
1 28129U 03058A   19341.68745435  .00000034  00000-0  00000+0 0  9994
2 28129  53.2343 119.9561 0071045 287.4007  71.8050  2.00567976116990
GPS BIIR-11 (PRN 19)    
1 28190U 04009A   19341.25570583 -.00000068  00000-0  00000+0 0  9990
2 28190  56.2816  10.3422 0089351  88.0212 324.7395  2.00565744115169
GPS BIIR-12 (PRN 23)    
1 28361U 04023A   19340.30718587  .00000090  00000-0  00000+0 0  9993
2 28361  54.0524 183.3073 0134255 233.5478 125.0582  2.00558973113220
GPS BIIR-13 (PRN 02)    
1 28474U 04045A   19342.42043024 -.00000072  00000-0  00000+0 0  9995
2 28474  54.8403  60.6808 0197596 263.1762 185.8913  2.00573458110633
GPS BIIRM-1 (PRN 17)    
1 28874U 05038A   19341.74461367 -.00000064  00000-0  00000+0 0  9991
2 28874  56.3951   7.6929 0136475 263.8550 161.5860  2.00571442104027
GPS BIIRM-2 (PRN 31)    
1 29486U 06042A   19342.49611782  .00000003  00000-0  00000+0 0  9990
2 29486  54.9277 246.0615 0095698   3.0319 166.3436  2.00555106 96752
GPS BIIRM-3 (PRN 12)    
1 29601U 06052A   19342.20241632 -.00000052  00000-0  00000+0 0  9997
2 29601  56.1802 308.4456 0074676  61.7744 298.9722  2.00551176 95663
GPS BIIRM-4 (PRN 15)    
1 32260U 07047A   19342.51631430  .00000109  00000-0  00000+0 0  9992
2 32260  53.1764 178.7443 0118955  47.8006 313.2751  2.00570943 89042
GPS BIIRM-5 (PRN 29)    
1 32384U 07062A   19342.55954260 -.00000060  00000-0  00000+0 0  9996
2 32384  56.4848   8.3176 0008355 124.2753  37.4140  2.00566235 87785
GPS BIIRM-6 (PRN 07)    
1 32711U 08012A   19341.43485782 -.00000009  00000-0  00000+0 0  9993
2 32711  54.6711 245.2530 0133468 222.0229 136.9987  2.00558485 85941
GPS BIIRM-8 (PRN 05)    
1 35752U 09043A   19341.41992300  .00000044  00000-0  00000+0 0  9991
2 35752  54.5023 122.8690 0056554  44.5658 331.8222  2.00576653 75533
GPS BIIF-1  (PRN 25)    
1 36585U 10022A   19342.35229520 -.00000053  00000-0  00000+0 0  9997
2 36585  55.4559 304.6147 0085253  49.7205  25.0397  2.00569599 69799
GPS BIIF-2  (PRN 01)    
1 37753U 11036A   19341.62428903 -.00000071  00000-0  00000+0 0  9996
2 37753  56.0394  64.8808 0090152  42.6632 315.2215  2.00567730 61464
GPS BIIF-3  (PRN 24)    
1 38833U 12053A   19342.11740140  .00000007  00000-0  00000+0 0  9999
2 38833  53.7093 241.2581 0090850  35.0550 325.5998  2.00563821 52530
GPS BIIF-4  (PRN 27)    
1 39166U 13023A   19342.47184607 -.00000060  00000-0  00000+0 0  9996
2 39166  56.0679   4.3788 0073369  26.8190 333.6149  2.00566083 48083
GPS BIIF-5  (PRN 30)    
1 39533U 14008A   19341.97623056 -.00000005  00000-0  00000+0 0  9997
2 39533  53.8333 246.6788 0042096 195.8211 164.0986  2.00557868 42437
GPS BIIF-6  (PRN 06)    
1 39741U 14026A   19342.25224703 -.00000069  00000-0  00000+0 0  9996
2 39741  56.0171  64.3824 0018617 288.3726  71.4471  2.00559663 40725
GPS BIIF-7  (PRN 09)    
1 40105U 14045A   19340.84282027  .00000097  00000-0  00000+0 0  9999
2 40105  54.5790 183.6837 0014628  97.3071 262.9336  2.00577995 39148
GPS BIIF-8  (PRN 03)    
1 40294U 14068A   19341.22023627  .00000050  00000-0  00000+0 0  9994
2 40294  55.2534 124.5681 0024520  41.3502 318.8210  2.00565274 37374
GPS BIIF-9  (PRN 26)    
1 40534U 15013A   19342.35271590 -.00000055  00000-0  00000+0 0  9997
2 40534  54.3772 302.7732 0043051   4.8179 355.2152  2.00559087 34468
GPS BIIF-10  (PRN 08)   
1 40730U 15033A   19340.01925383 -.00000072  00000-0  00000+0 0  9993
2 40730  55.5892   3.7374 0048640 344.0123  15.8855  2.00573444 32177
GPS BIIF-11  (PRN 10)   
1 41019U 15062A   19342.06243551  .00000046  00000-0  00000+0 0  9993
2 41019  55.2529 124.3551 0052500 205.9168 153.8039  2.00564598 30033
GPS BIIF-12  (PRN 32)   
1 41328U 16007A   19342.15287679  .00000108  00000-0  00000+0 0  9994
2 41328  54.8178 184.0674 0034495 217.1015 142.7372  2.00565418 28091
GPS BIII-1  (PRN 04)    
1 43873U 18109A   19341.31192865  .00000100  00000-0  00000+0 0  9997
2 43873  54.9981 186.3339 0014920 284.9963  74.9228  2.00923194  7215
